STARLINK-5564
1 56134U 23046AU  26092.74879207  .00057624  00000+0  21715-2 0  9998
2 56134  42.9978  10.7736 0009565 325.3993  34.6235 15.26237167165884
